NORAD_CAT_ID,OBJECT_NAME,OBJECT_TYPE,EPOCH,MEAN_MOTION,ECCENTRICITY,INCLINATION,RA_OF_ASC_NODE,ARG_OF_PERICENTER,MEAN_ANOMALY,BSTAR,MEAN_MOTION_DOT,MEAN_MOTION_DDOT,TLE_LINE0,TLE_LINE1,TLE_LINE2,SEMIMAJOR_AXIS,PERIOD,APOGEE,PERIGEE,DECAYED
50200.0,STARLINK-3235,PAYLOAD,2023-02-18 11:13:48,15.08280295,0.000117,53.2133,205.5529,83.7731,276.3394,-0.0056272,-0.00087412,0.0,0 STARLINK-3235,1 50200U 21125AW  23049.46792498 -.00087412  00000-0 -56272-2 0  9993,2 50200  53.2133 205.5529 0001170  83.7731 276.3394 15.08280295 67896,6919.592,95.473,542.266,540.647,0.0
50200.0,STARLINK-3235,PAYLOAD,2023-02-18 12:49:14,15.08272164,0.0001285,53.2133,205.2556,87.322,272.7919,-0.0054945,-0.00085364,0.0,0 STARLINK-3235,1 50200U 21125AW  23049.53419316 -.00085364  00000-0 -54945-2 0  9995,2 50200  53.2133 205.2556 0001285  87.3220 272.7919 15.08272164 68398,6919.617,95.473,542.371,540.592,0.0
50200.0,STARLINK-3235,PAYLOAD,2023-02-18 22:21:47,15.08229474,0.0001265,53.2135,203.4726,80.3532,279.7603,-0.0046248,-0.00071948,0.0,0 STARLINK-3235,1 50200U 21125AW  23049.93180505 -.00071948  00000-0 -46248-2 0  9994,2 50200  53.2135 203.4726 0001265  80.3532 279.7603 15.08229474 67961,6919.747,95.476,542.488,540.737,0.0
50200.0,STARLINK-3235,PAYLOAD,2023-02-19 04:43:26,15.08292823,0.0001445,53.2139,202.2827,26.2409,333.8656,-0.0024775,-0.00038921,0.0,0 STARLINK-3235,1 50200U 21125AW  23050.19683611 -.00038921  00000-0 -24775-2 0  9995,2 50200  53.2139 202.2827 0001445  26.2409 333.8656 15.08292823 68000,6919.553,95.472,542.418,540.419,0.0
50200.0,STARLINK-3235,PAYLOAD,2023-02-19 14:15:46,15.08525295,0.0001459,53.2138,200.4981,119.6572,240.4565,0.002883,0.00045497,0.0,0 STARLINK-3235,1 50200U 21125AW  23050.59429145  .00045497  00000-0  28830-2 0  9999,2 50200  53.2138 200.4981 0001459 119.6572 240.4565 15.08525295 68557,6918.842,95.457,541.717,539.698,0.0
50200.0,STARLINK-3235,PAYLOAD,2023-02-19 15:51:01,15.0859278,0.0001607,53.2147,200.1998,93.0177,267.0999,0.0011546,0.00018011,0.0,0 STARLINK-3235,1 50200U 21125AW  23050.66043020  .00018011  00000-0  11546-2 0  9999,2 50200  53.2147 200.1998 0001607  93.0177 267.0999 15.08592780 68079,6918.636,95.453,541.613,539.389,0.0
50200.0,STARLINK-3235,PAYLOAD,2023-02-19 23:48:03,15.08567287,0.0001626,53.2149,198.714,84.1338,275.9839,0.0025927,0.00040907,0.0,0 STARLINK-3235,1 50200U 21125AW  23050.99170527  .00040907  00000-0  25927-2 0  9995,2 50200  53.2149 198.7140 0001626  84.1338 275.9839 15.08567287 68124,6918.714,95.455,541.704,539.454,0.0
50200.0,STARLINK-3235,PAYLOAD,2023-02-20 02:59:02,15.08559263,0.0001493,53.2145,198.1187,83.336,276.7802,0.0054645,0.00087084,0.0,0 STARLINK-3235,1 50200U 21125AW  23051.12433138  .00087084  00000-0  54645-2 0  9997,2 50200  53.2145 198.1187 0001493  83.3360 276.7802 15.08559263 68149,6918.739,95.455,541.637,539.571,0.0
50200.0,STARLINK-3235,PAYLOAD,2023-02-20 14:06:49,15.08624857,0.0001426,53.2139,196.0391,93.5273,266.5882,0.005071,0.00080866,0.0,0 STARLINK-3235,1 50200U 21125AW  23051.58807046  .00080866  00000-0  50710-2 0  9990,2 50200  53.2139 196.0391 0001426  93.5273 266.5882 15.08624857 68707,6918.538,95.451,541.39,539.416,0.0
50200.0,STARLINK-3235,PAYLOAD,2023-02-20 15:42:13,15.08638205,0.000148,53.214,195.7418,96.4138,263.7022,0.0050676,0.00080841,0.0,0 STARLINK-3235,1 50200U 21125AW  23051.65431725  .00080841  00000-0  50676-2 0  9999,2 50200  53.2140 195.7418 0001480  96.4138 263.7022 15.08638205 68221,6918.497,95.45,541.386,539.338,0.0
50200.0,STARLINK-3235,PAYLOAD,2023-02-20 23:39:06,15.08810612,0.0001741,53.2141,194.2543,81.262,278.8569,0.0012912,0.00020305,0.0,0 STARLINK-3235,1 50200U 21125AW  23051.98549527  .00020305  00000-0  12912-2 0  9995,2 50200  53.2141 194.2543 0001741  81.2620 278.8569 15.08810612 68275,6917.97,95.439,541.04,538.631,0.0
50200.0,STARLINK-3235,PAYLOAD,2023-02-21 01:14:29,15.08818244,0.0001708,53.2144,193.9576,75.4373,284.6809,0.00099331,0.00015546,0.0,0 STARLINK-3235,1 50200U 21125AW  23052.05173329  .00015546  00000-0  99331-3 0  9999,2 50200  53.2144 193.9576 0001708  75.4373 284.6809 15.08818244 68779,6917.947,95.439,540.993,538.63,0.0
50200.0,STARLINK-3235,PAYLOAD,2023-02-21 15:32:57,15.08848617,0.0001366,53.2149,191.282,72.7291,287.385,0.00051451,7.912e-05,0.0,0 STARLINK-3235,1 50200U 21125AW  23052.64788367  .00007912  00000-0  51451-3 0  9997,2 50200  53.2149 191.2820 0001366  72.7291 287.3850 15.08848617 68375,6917.854,95.437,540.664,538.774,0.0
50200.0,STARLINK-3235,PAYLOAD,2023-02-22 02:40:39,15.08846692,0.000203,53.2142,189.1991,76.5176,283.6042,0.00041451,6.316e-05,0.0,0 STARLINK-3235,1 50200U 21125AW  23053.11156347  .00006316  00000-0  41451-3 0  9993,2 50200  53.2142 189.1991 0002030  76.5176 283.6042 15.08846692 68447,6917.86,95.437,541.129,538.321,0.0
50200.0,STARLINK-3235,PAYLOAD,2023-02-22 13:48:20,15.08857415,0.000183,53.215,187.1178,75.0647,285.0547,0.00069875,0.00010855,0.0,0 STARLINK-3235,1 50200U 21125AW  23053.57523939  .00010855  00000-0  69875-3 0  9991,2 50200  53.2150 187.1178 0001830  75.0647 285.0547 15.08857415 69009,6917.827,95.436,540.958,538.426,0.0
50200.0,STARLINK-3235,PAYLOAD,2023-02-22 20:09:53,15.08864481,0.0001888,53.2153,185.929,69.3244,290.795,0.0014125,0.00022279,0.0,0 STARLINK-3235,1 50200U 21125AW  23053.84019721  .00022279  00000-0  14125-2 0  9990,2 50200  53.2153 185.9290 0001888  69.3244 290.7950 15.08864481 69041,6917.806,95.436,540.977,538.364,0.0
50200.0,STARLINK-3235,PAYLOAD,2023-02-23 12:03:44,15.0884723,0.000144,53.2149,182.954,82.9136,277.202,0.0013535,0.00021323,0.0,0 STARLINK-3235,1 50200U 21125AW  23054.50260079  .00021323  00000-0  13535-2 0  9991,2 50200  53.2149 182.9540 0001440  82.9136 277.2020 15.08847230 69148,6917.858,95.437,540.719,538.727,0.0
50200.0,STARLINK-3235,PAYLOAD,2023-02-23 13:39:07,15.08851576,0.0001567,53.215,182.657,77.6832,282.4335,0.0016815,0.00026583,0.0,0 STARLINK-3235,1 50200U 21125AW  23054.56884059  .00026583  00000-0  16815-2 0  9994,2 50200  53.2150 182.6570 0001567  77.6832 282.4335 15.08851576 68665,6917.845,95.437,540.794,538.626,0.0
50200.0,STARLINK-3235,PAYLOAD,2023-02-23 20:00:40,15.08866955,0.0001608,53.2151,181.4671,75.5885,284.5285,0.0020428,0.00032397,0.0,0 STARLINK-3235,1 50200U 21125AW  23054.83379745  .00032397  00000-0  20428-2 0  9990,2 50200  53.2151 181.4671 0001608  75.5885 284.5285 15.08866955 69199,6917.798,95.436,540.775,538.551,0.0
50200.0,STARLINK-3235,PAYLOAD,2023-02-24 07:08:22,15.0883789,0.000136,53.2155,179.3866,86.7959,273.3189,0.00069982,0.00010867,0.0,0 STARLINK-3235,1 50200U 21125AW  23055.29748035  .00010867  00000-0  69982-3 0  9990,2 50200  53.2155 179.3866 0001360  86.7959 273.3189 15.08837890 68774,6917.887,95.438,540.693,538.811,0.0
50200.0,STARLINK-3235,PAYLOAD,2023-02-24 11:54:31,15.08848414,0.0001506,53.215,178.4949,83.7521,276.3642,0.0013004,0.00020473,0.0,0 STARLINK-3235,1 50200U 21125AW  23055.49620015  .00020473  00000-0  13004-2 0  9996,2 50200  53.2150 178.4949 0001506  83.7521 276.3642 15.08848414 69294,6917.855,95.437,540.761,538.678,0.0
50200.0,STARLINK-3235,PAYLOAD,2023-02-24 15:05:17,15.08854337,0.0001463,53.2149,177.8995,83.655,276.4608,0.0016596,0.00026234,0.0,0 STARLINK-3235,1 50200U 21125AW  23055.62867895  .00026234  00000-0  16596-2 0  9990,2 50200  53.2149 177.8995 0001463  83.6550 276.4608 15.08854337 69316,6917.837,95.437,540.714,538.689,0.0
50200.0,STARLINK-3235,PAYLOAD,2023-02-25 00:37:36,15.08843457,0.0001673,53.2156,176.1151,91.424,268.6943,0.00045444,6.952e-05,0.0,0 STARLINK-3235,1 50200U 21125AW  23056.02612120  .00006952  00000-0  45444-3 0  9994,2 50200  53.2156 176.1151 0001673  91.4240 268.6943 15.08843457 68883,6917.87,95.437,540.892,538.577,0.0
50200.0,STARLINK-3235,PAYLOAD,2023-02-25 13:20:42,15.08824958,0.0001498,53.2148,173.7347,84.1209,275.9953,0.0011389,0.00017877,0.0,0 STARLINK-3235,1 50200U 21125AW  23056.55604962  .00017877  00000-0  11389-2 0  9995,2 50200  53.2148 173.7347 0001498  84.1209 275.9953 15.08824958 68969,6917.926,95.439,540.828,538.755,0.0
50200.0,STARLINK-3235,PAYLOAD,2023-02-25 16:31:29,15.08832561,0.0001517,53.2153,173.1413,86.3677,273.7488,0.0015813,0.00024963,0.0,0 STARLINK-3235,1 50200U 21125AW  23056.68853012  .00024963  00000-0  15813-2 0  9991,2 50200  53.2153 173.1413 0001517  86.3677 273.7488 15.08832561 69473,6917.903,95.438,540.818,538.719,0.0
50200.0,STARLINK-3235,PAYLOAD,2023-02-26 11:36:06,15.08865601,0.0001521,53.2141,169.5731,88.5434,271.5733,0.0015401,0.00024325,0.0,0 STARLINK-3235,1 50200U 21125AW  23057.48340629  .00024325  00000-0  15401-2 0  9990,2 50200  53.2141 169.5731 0001521  88.5434 271.5733 15.08865601 69595,6917.802,95.436,540.719,538.615,0.0
50200.0,STARLINK-3235,PAYLOAD,2023-02-26 19:33:01,15.08887208,0.0001506,53.2147,168.0857,83.9983,276.1181,0.0017319,0.00027419,0.0,0 STARLINK-3235,1 50200U 21125AW  23057.81459713  .00027419  00000-0  17319-2 0  9999,2 50200  53.2147 168.0857 0001506  83.9983 276.1181 15.08887208 69152,6917.736,95.435,540.643,538.559,0.0
50200.0,STARLINK-3235,PAYLOAD,2023-02-27 17:48:25,15.08911206,0.0001675,53.2142,163.924,65.008,295.1086,0.005349,0.0008605,0.0,0 STARLINK-3235,1 50200U 21125AW  23058.74195678  .00086050  00000-0  53490-2 0  9995,2 50200  53.2142 163.9240 0001675  65.0080 295.1086 15.08911206 69299,6917.663,95.433,540.686,538.369,0.0
50200.0,STARLINK-3235,PAYLOAD,2023-02-28 00:09:58,15.08816653,0.0002007,53.2148,162.7325,72.0225,288.0986,0.0018709,0.00029594,0.0,0 STARLINK-3235,1 50200U 21125AW  23059.00692598  .00029594  00000-0  18709-2 0  9992,2 50200  53.2148 162.7325 0002007  72.0225 288.0986 15.08816653 69330,6917.952,95.439,541.205,538.428,0.0
50200.0,STARLINK-3235,PAYLOAD,2023-02-28 12:53:04,15.0882589,0.0001296,53.2145,160.3535,73.4331,286.6803,0.0017715,0.00028007,0.0,0 STARLINK-3235,1 50200U 21125AW  23059.53685477  .00028007  00000-0  17715-2 0  9992,2 50200  53.2145 160.3535 0001296  73.4331 286.6803 15.08825890 69904,6917.924,95.438,540.685,538.892,0.0
